{
  "type": "FeatureCollection",
  "features": [
    {
      "type": "Feature",
      "properties": {
        "norad_id": 19071,
        "name": "OSCAR 32",
        "group": "nnss",
        "lat": -41.16187861976899,
        "lon": 17.236454360519847,
        "alt_km": 1301.1285619457185,
        "timestamp": "2025-12-26T15:29:39.708020+00:00",
        "meta_object_name": "OSCAR 32",
        "meta_object_id": "1988-033B",
        "meta_epoch": "2025-12-26T01:22:17.949216",
        "meta_mean_motion": 13.2795587,
        "meta_eccentricity": 0.01892824,
        "meta_inclination": 90.3208,
        "meta_ra_of_asc_node": 16.9375,
        "meta_arg_of_pericenter": 129.9225,
        "meta_mean_anomaly": 257.8987,
        "meta_ephemeris_type": 0,
        "meta_classification_type": "U",
        "meta_norad_cat_id": 19071,
        "meta_element_set_no": 999,
        "meta_rev_at_epoch": 82442,
        "meta_bstar": 0.00012879486,
        "meta_mean_motion_dot": 7.4e-07,
        "meta_mean_motion_ddot": 0,
        "tle_line1": "1 19071U 88033B   25360.05715219  .00000074  00000+0  12879-3 0  9996",
        "tle_line2": "2 19071  90.3208  16.9375 0189282 129.9225 257.8987 13.27955870824426"
      },
      "geometry": {
        "type": "Point",
        "coordinates": [
          17.236454360519847,
          -41.16187861976899
        ]
      }
    },
    {
      "type": "Feature",
      "properties": {
        "norad_id": 19223,
        "name": "NOVA 2",
        "group": "nnss",
        "lat": -85.38598658496407,
        "lon": -101.57530265944447,
        "alt_km": 1174.4029252647133,
        "timestamp": "2025-12-26T15:29:39.708031+00:00",
        "meta_object_name": "NOVA 2",
        "meta_object_id": "1988-052A",
        "meta_epoch": "2025-12-26T05:20:51.532224",
        "meta_mean_motion": 13.22937541,
        "meta_eccentricity": 0.00294464,
        "meta_inclination": 89.9863,
        "meta_ra_of_asc_node": 78.2554,
        "meta_arg_of_pericenter": 339.4422,
        "meta_mean_anomaly": 73.9011,
        "meta_ephemeris_type": 0,
        "meta_classification_type": "U",
        "meta_norad_cat_id": 19223,
        "meta_element_set_no": 999,
        "meta_rev_at_epoch": 81126,
        "meta_bstar": 0.00012462973,
        "meta_mean_motion_dot": 6.1e-07,
        "meta_mean_motion_ddot": 0,
        "tle_line1": "1 19223U 88052A   25360.22281866  .00000061  00000+0  12463-3 0  9996",
        "tle_line2": "2 19223  89.9863  78.2554 0029446 339.4422  73.9011 13.22937541811261"
      },
      "geometry": {
        "type": "Point",
        "coordinates": [
          -101.57530265944447,
          -85.38598658496407
        ]
      }
    },
    {
      "type": "Feature",
      "properties": {
        "norad_id": 19419,
        "name": "OSCAR 25",
        "group": "nnss",
        "lat": -66.90595280284785,
        "lon": -159.79009526789466,
        "alt_km": 1052.9227324164694,
        "timestamp": "2025-12-26T15:29:39.708041+00:00",
        "meta_object_name": "OSCAR 25",
        "meta_object_id": "1988-074A",
        "meta_epoch": "2025-12-26T02:01:24.098880",
        "meta_mean_motion": 13.42625663,
        "meta_eccentricity": 0.00952772,
        "meta_inclination": 90.0337,
        "meta_ra_of_asc_node": 20.2871,
        "meta_arg_of_pericenter": 207.2859,
        "meta_mean_anomaly": 207.4809,
        "meta_ephemeris_type": 0,
        "meta_classification_type": "U",
        "meta_norad_cat_id": 19419,
        "meta_element_set_no": 999,
        "meta_rev_at_epoch": 82819,
        "meta_bstar": 0.00011945836,
        "meta_mean_motion_dot": 7.8e-07,
        "meta_mean_motion_ddot": 0,
        "tle_line1": "1 19419U 88074A   25360.08430670  .00000078  00000+0  11946-3 0  9993",
        "tle_line2": "2 19419  90.0337  20.2871 0095277 207.2859 207.4809 13.42625663828197"
      },
      "geometry": {
        "type": "Point",
        "coordinates": [
          -159.79009526789466,
          -66.90595280284785
        ]
      }
    },
    {
      "type": "Feature",
      "properties": {
        "norad_id": 19420,
        "name": "OSCAR 31",
        "group": "nnss",
        "lat": 52.98886616599488,
        "lon": -159.3116294160763,
        "alt_km": 1073.5298273954995,
        "timestamp": "2025-12-26T15:29:39.708050+00:00",
        "meta_object_name": "OSCAR 31",
        "meta_object_id": "1988-074B",
        "meta_epoch": "2025-12-26T02:39:29.801376",
        "meta_mean_motion": 13.42586716,
        "meta_eccentricity": 0.00936838,
        "meta_inclination": 90.0354,
        "meta_ra_of_asc_node": 20.6395,
        "meta_arg_of_pericenter": 201.3536,
        "meta_mean_anomaly": 223.1105,
        "meta_ephemeris_type": 0,
        "meta_classification_type": "U",
        "meta_norad_cat_id": 19420,
        "meta_element_set_no": 999,
        "meta_rev_at_epoch": 82830,
        "meta_bstar": 9.7645059e-05,
        "meta_mean_motion_dot": 6.6e-07,
        "meta_mean_motion_ddot": 0,
        "tle_line1": "1 19420U 88074B   25360.11076159  .00000066  00000+0  97645-4 0  9995",
        "tle_line2": "2 19420  90.0354  20.6395 0093683 201.3536 223.1105 13.42586716828301"
      },
      "geometry": {
        "type": "Point",
        "coordinates": [
          -159.3116294160763,
          52.98886616599488
        ]
      }
    }
  ]
}